#cP2022  3 29 12  0  0.00000000     576 d+D   IGb14 EXT AIUB
## 2203 216000.00000000   300.00000000 59667 0.5000000000000
+   75   G01G02G03G04G05G06G07G08G09G10G11G12G13G14G15G16G17
+        G18G19G20G21G22G23G24G25G26G27G28G29G30G31G32R01R02
+        R03R04R05R07R08R09R12R13R14R15R17R18R19R21R24E01E02
+        E03E04E05E07E08E09E10E11E12E13E14E15E18E19E21E24E25
+        E26E27E30E31E33E34E36  0  0  0  0  0  0  0  0  0  0
++         5  7  6  8  7  6  7  6  6  6  8  7  7  7  7  7  7
++         8  7  7  7  7  7  6  6  6  6  7  7  6  6  5  8  7
++         7  7  7  7  6  7  7  8  7  7  7  6  8  8  7  6  6
++         6  6  6  6  6  6  7  7  6  6  7  6  7  7  6  6  6
++         7  6  6  6  6  7  7  0  0  0  0  0  0  0  0  0  0
%c M  cc GPS ccc cccc cccc cccc cccc ccccc ccccc ccccc ccccc
%c cc cc ccc ccc cccc cccc cccc cccc ccccc ccccc ccccc ccccc
%f  1.2500000  1.025000000  0.00000000000  0.000000000000000
%f  0.0000000  0.000000000  0.00000000000  0.000000000000000
%i    0    0    0    0      0      0      0      0         0
%i    0    0    0    0      0      0      0      0         0
/* Center for Orbit Determination in Europe (CODE)          
/* Ultra-rapid GRE orbits starting year-day 22088 12 hour   
/* Observed/predicted: 24/24 hours (data used up to 089L)   
/* PCV:IGS14      OL/AL:FES2014b NONE     YN ORB:CoN CLK:BRD
*  2022  3 30 18 25  0.00000000
PG01  13562.499359 -19859.727682  10580.374029    396.509705               P   P
PG02 -14963.315682   -492.467131 -21293.840261   -652.778263               P   P
PG03  19902.923168 -12985.847842 -11847.095328   -186.195221               P   P
PG04  10246.758579 -11310.448924 -21725.237204   -179.809497               P   P
PG05 -26007.529213   4730.677101  -3488.949807    -76.535938               P   P
PG06  -7639.148819 -17188.382784 -18652.683993    249.271883               P   P
PG07   4382.205950 -25573.053345   4636.027222    318.433138               P   P
PG08  17537.073756  -1865.333133  19932.906297    -61.918196               P   P
PG09   -522.941370 -19191.293218 -18405.583343   -346.783106               P   P
PG10   8951.483145  12975.591406  21564.364659   -363.153314               P   P
PG11 -15294.019180  -1989.832802 -21628.210304    -52.605332               P   P
PG12 -22812.776157  10083.975631  -9207.016622   -192.827067               P   P
PG13 -19366.892861  -7742.636752  16390.032944    285.666818               P   P
PG14  -7357.883059 -14014.584071  21331.077499    -98.597683               P   P
PG15 -17182.759772   4582.519055  19410.302677    -72.761750               P   P
PG16  25838.743532   1352.255428  -7262.803787   -486.478688               P   P
PG17 -12900.261059 -22375.628073   6507.178935    594.028507               P   P
PG18  -5356.491325  25638.238810   4047.735140    207.555691               P   P
PG19 -17029.034054 -20461.798170  -1816.751894    137.892153               P   P
PG20 -23266.272072   -388.486748 -12579.838729    516.064575               P   P
PG21  15896.897966  -9954.505619  19197.411958    159.969516               P   P
PG22  18282.816052  18993.875546  -3549.695991    235.614766               P   P
PG23  -3791.815882  15904.187952  20902.519688    -11.100560               P   P
PG24 -14301.464815  16905.734123  14065.177860    262.667284               P   P
PG25 -11190.149840  15927.669840 -18232.765990    305.396357               P   P
PG26  19459.639360   7174.932691 -16847.950796    194.885734               P   P
PG27  21196.587953   9692.455207  12893.673462    170.044959               P   P
PG28 -15614.067643 -10951.390431  18904.748684    374.604764               P   P
PG29  -2087.923456  18048.212954 -19403.149028   -497.441975               P   P
PG30  -1772.639017 -23517.777713  12043.255501   -521.397625               P   P
PG31   9835.769047  14792.293996 -19725.835088   -171.250769               P   P
PG32  16313.475374  20794.851289   3652.995565    -95.196983               P   P
PR01   4274.545884  12608.950723  21761.874212      7.458963               P   P
PR02  20936.963212  12211.130448   8096.757537    514.055531               P   P
PR03  23394.904211   4159.129362  -9300.053760     54.039116               P   P
PR04  12665.347881  -5823.904344 -21330.950499    134.348540               P   P
PR05  -4925.907343 -12710.544541 -21538.406562     90.307936               P   P
PR07 -23117.093741  -3661.275984  10130.395064     33.251941               P   P
PR08 -12528.945560   6098.874215  21421.211921    -64.310618               P   P
PR09 -10165.545442  -6033.362576  22622.942246     47.135949               P   P
PR12  -6228.380486  16541.291429 -18362.356606     17.708727               P   P
PR13   8926.092579   6838.440560 -22915.885326    -20.177902               P   P
PR14  19948.409835  -7918.684462 -13767.873567     75.951219               P   P
PR15  18583.008152 -17204.780425   3073.462942     97.197480               P   P
PR17  10836.844762   1651.727018  23037.184811    513.628908               P   P
PR18   6300.302185 -15684.122557  19093.602165    111.961178               P   P
PR19   -309.097902 -24755.305261   6134.209663   -183.529623               P   P
PR21 -10573.762823   -145.254517 -23214.851966   -289.471991               P   P
PR24   9480.632602  18929.801782  14239.822737     86.807489               P   P
PE01  -1271.555605  17657.694297 -23725.141423   -606.859945               P   P
PE02   1123.562512 -17622.243447  23751.768528    289.644069               P   P
PE03  -9602.314467 -22787.215912 -16275.121795   -542.834012               P   P
PE04  23206.912731  18356.253875   -835.619275   -995.847207               P   P
PE05   9936.838285 -13901.697192 -24163.027500   -195.470073               P   P
PE07 -23409.440166  -2930.728931  17891.954555   -653.609115               P   P
PE08 -23417.755313 -18074.549965   1198.839744   -503.964670               P   P
PE09  23259.720604   2747.953767 -18085.613287   -467.240866               P   P
PE10  15220.534584   5848.831269  24698.272358   -503.650587               P   P
PE11  16598.027221  -6262.557669  23682.798669   4093.335792               P   P
PE12  11597.608654  16510.122705  21666.948743   4687.505816               P   P
PE13 -16514.174618   5564.303107 -23925.430392    427.676846               P   P
PE14 -20663.523070 -21944.900304  -2206.688501  -1796.624776               P   P
PE15 -11510.459326 -16585.166104 -21636.582233    754.651162               P   P
PE18  10138.805410  23266.551491  -8084.265737  -1622.708636               P   P
PE19   7303.283258  22331.277507  18016.762204  -2188.801939               P   P
PE21 -19970.601881  17206.084073 -13463.997495   -725.571736               P   P
PE24  28347.628640  -5814.321566  -6314.235102   -533.965744               P   P
PE25  20196.212528 -17125.779967  13237.748747   -568.648538               P   P
PE26 -11479.991040  24867.761160 -11228.091195   -972.983387               P   P
PE27 -28335.303654   6821.846337   5128.928986   -265.005529               P   P
PE30 -19082.264156  -8301.098459  21029.053231   -390.819704               P   P
PE31  19963.422799   7478.874960 -20536.957149   -494.313866               P   P
PE33   -257.614778  28862.348277   6604.511353   -458.076211               P   P
PE34     68.763538 -28808.548217  -6802.544526   -509.494089               P   P
PE36  11790.230868 -24268.891527  12158.957923   -352.680335               P   P
EOF
